{
  "type": "FeatureCollection",
  "features": [
    {
      "type": "Feature",
      "properties": {
        "norad_id": 46435,
        "name": "IRIDIUM 33 DEB",
        "group": "iridium-33-debris",
        "lat": 2.074810684593522,
        "lon": -163.74719571423313,
        "alt_km": 732.7247783414223,
        "timestamp": "2025-12-07T16:44:04.298176+00:00",
        "meta_object_name": "IRIDIUM 33 DEB",
        "meta_object_id": "1997-051ABN",
        "meta_epoch": "2025-12-05T21:11:31.918848",
        "meta_mean_motion": 14.31677578,
        "meta_eccentricity": 0.02114169,
        "meta_inclination": 86.2838,
        "meta_ra_of_asc_node": 196.8975,
        "meta_arg_of_pericenter": 298.5374,
        "meta_mean_anomaly": 75.9758,
        "meta_ephemeris_type": 0,
        "meta_classification_type": "U",
        "meta_norad_cat_id": 46435,
        "meta_element_set_no": 999,
        "meta_rev_at_epoch": 7818,
        "meta_bstar": 0.013325528,
        "meta_mean_motion_dot": 0.00045688,
        "meta_mean_motion_ddot": 0,
        "tle_line1": "1 46435U 97051ABN 25339.88300832  .00045688  00000+0  13326-1 0  9994",
        "tle_line2": "2 46435  86.2838 196.8975 0211416 298.5374  75.9758 14.31677578 78181"
      },
      "geometry": {
        "type": "Point",
        "coordinates": [
          -163.74719571423313,
          2.074810684593522
        ]
      }
    },
    {
      "type": "Feature",
      "properties": {
        "norad_id": 46734,
        "name": "IRIDIUM 33 DEB",
        "group": "iridium-33-debris",
        "lat": 14.517276043851565,
        "lon": 6.0483327357845145,
        "alt_km": 727.3343479323667,
        "timestamp": "2025-12-07T16:44:04.298186+00:00",
        "meta_object_name": "IRIDIUM 33 DEB",
        "meta_object_id": "1997-051ABR",
        "meta_epoch": "2025-12-03T20:12:35.443296",
        "meta_mean_motion": 14.41795233,
        "meta_eccentricity": 0.00394426,
        "meta_inclination": 86.2642,
        "meta_ra_of_asc_node": 6.7702,
        "meta_arg_of_pericenter": 5.4679,
        "meta_mean_anomaly": 171.2392,
        "meta_ephemeris_type": 0,
        "meta_classification_type": "U",
        "meta_norad_cat_id": 46734,
        "meta_element_set_no": 999,
        "meta_rev_at_epoch": 62882,
        "meta_bstar": 0.0014594249,
        "meta_mean_motion_dot": 4.83e-05,
        "meta_mean_motion_ddot": 0,
        "tle_line1": "1 46734U 97051ABR 25337.84207689  .00004830  00000+0  14594-2 0  9999",
        "tle_line2": "2 46734  86.2642   6.7702 0039442   5.4679 171.2392 14.41795233628829"
      },
      "geometry": {
        "type": "Point",
        "coordinates": [
          6.0483327357845145,
          14.517276043851565
        ]
      }
    },
    {
      "type": "Feature",
      "properties": {
        "norad_id": 46965,
        "name": "IRIDIUM 33 DEB",
        "group": "iridium-33-debris",
        "lat": 1.4338909163227256,
        "lon": 162.84211112072197,
        "alt_km": 708.6346756059111,
        "timestamp": "2025-12-07T16:44:04.298196+00:00",
        "meta_object_name": "IRIDIUM 33 DEB",
        "meta_object_id": "1997-051ABX",
        "meta_epoch": "2025-12-05T18:41:20.860224",
        "meta_mean_motion": 14.60213738,
        "meta_eccentricity": 0.00190424,
        "meta_inclination": 86.3344,
        "meta_ra_of_asc_node": 343.7847,
        "meta_arg_of_pericenter": 357.3462,
        "meta_mean_anomaly": 182.1313,
        "meta_ephemeris_type": 0,
        "meta_classification_type": "U",
        "meta_norad_cat_id": 46965,
        "meta_element_set_no": 999,
        "meta_rev_at_epoch": 62166,
        "meta_bstar": 0.0015532807,
        "meta_mean_motion_dot": 7.528e-05,
        "meta_mean_motion_ddot": 0,
        "tle_line1": "1 46965U 97051ABX 25339.77871366  .00007528  00000+0  15533-2 0  9999",
        "tle_line2": "2 46965  86.3344 343.7847 0019042 357.3462 182.1313 14.60213738621667"
      },
      "geometry": {
        "type": "Point",
        "coordinates": [
          162.84211112072197,
          1.4338909163227256
        ]
      }
    },
    {
      "type": "Feature",
      "properties": {
        "norad_id": 46971,
        "name": "IRIDIUM 33 DEB",
        "group": "iridium-33-debris",
        "lat": -62.06663993882767,
        "lon": -31.448713346571466,
        "alt_km": 578.9844869780763,
        "timestamp": "2025-12-07T16:44:04.298206+00:00",
        "meta_object_name": "IRIDIUM 33 DEB",
        "meta_object_id": "1997-051ACD",
        "meta_epoch": "2025-11-30T18:57:44.502624",
        "meta_mean_motion": 14.96904917,
        "meta_eccentricity": 0.00065248,
        "meta_inclination": 86.3392,
        "meta_ra_of_asc_node": 338.7285,
        "meta_arg_of_pericenter": 8.9727,
        "meta_mean_anomaly": 165.6369,
        "meta_ephemeris_type": 0,
        "meta_classification_type": "U",
        "meta_norad_cat_id": 46971,
        "meta_element_set_no": 999,
        "meta_rev_at_epoch": 64051,
        "meta_bstar": 0.0032009998,
        "meta_mean_motion_dot": 0.00036919,
        "meta_mean_motion_ddot": 0,
        "tle_line1": "1 46971U 97051ACD 25334.79009841  .00036919  00000+0  32010-2 0  9999",
        "tle_line2": "2 46971  86.3392 338.7285 0006524   8.9727 165.6369 14.96904917640518"
      },
      "geometry": {
        "type": "Point",
        "coordinates": [
          -31.448713346571466,
          -62.06663993882767
        ]
      }
    },
    {
      "type": "Feature",
      "properties": {
        "norad_id": 46974,
        "name": "IRIDIUM 33 DEB",
        "group": "iridium-33-debris",
        "lat": -3.554483663738248,
        "lon": -72.29550145537945,
        "alt_km": 684.2111127994422,
        "timestamp": "2025-12-07T16:44:04.298218+00:00",
        "meta_object_name": "IRIDIUM 33 DEB",
        "meta_object_id": "1997-051ACG",
        "meta_epoch": "2025-12-03T15:25:18.733152",
        "meta_mean_motion": 14.43893104,
        "meta_eccentricity": 0.00960014,
        "meta_inclination": 86.2979,
        "meta_ra_of_asc_node": 109.2433,
        "meta_arg_of_pericenter": 216.6177,
        "meta_mean_anomaly": 142.8439,
        "meta_ephemeris_type": 0,
        "meta_classification_type": "U",
        "meta_norad_cat_id": 46974,
        "meta_element_set_no": 999,
        "meta_rev_at_epoch": 57377,
        "meta_bstar": 0.0066247967,
        "meta_mean_motion_dot": 0.0002397,
        "meta_mean_motion_ddot": 0,
        "tle_line1": "1 46974U 97051ACG 25337.64257793  .00023970  00000+0  66248-2 0  9993",
        "tle_line2": "2 46974  86.2979 109.2433 0096001 216.6177 142.8439 14.43893104573778"
      },
      "geometry": {
        "type": "Point",
        "coordinates": [
          -72.29550145537945,
          -3.554483663738248
        ]
      }
    },
    {
      "type": "Feature",
      "properties": {
        "norad_id": 46979,
        "name": "IRIDIUM 33 DEB",
        "group": "iridium-33-debris",
        "lat": 80.58292419513715,
        "lon": -151.83508174502475,
        "alt_km": 609.2914582978219,
        "timestamp": "2025-12-07T16:44:04.298228+00:00",
        "meta_object_name": "IRIDIUM 33 DEB",
        "meta_object_id": "1997-051ACM",
        "meta_epoch": "2025-12-05T11:03:27.844416",
        "meta_mean_motion": 14.88622682,
        "meta_eccentricity": 0.00281198,
        "meta_inclination": 86.3357,
        "meta_ra_of_asc_node": 51.9321,
        "meta_arg_of_pericenter": 248.4888,
        "meta_mean_anomaly": 111.334,
        "meta_ephemeris_type": 0,
        "meta_classification_type": "U",
        "meta_norad_cat_id": 46979,
        "meta_element_set_no": 999,
        "meta_rev_at_epoch": 35320,
        "meta_bstar": 0.0078016126,
        "meta_mean_motion_dot": 0.00073917,
        "meta_mean_motion_ddot": 0,
        "tle_line1": "1 46979U 97051ACM 25339.46073894  .00073917  00000+0  78016-2 0  9990",
        "tle_line2": "2 46979  86.3357  51.9321 0028119 248.4888 111.3340 14.88622682353206"
      },
      "geometry": {
        "type": "Point",
        "coordinates": [
          -151.83508174502475,
          80.58292419513715
        ]
      }
    }
  ]
}